COSMOS 2251 DEB         
1 34383U 93036PY  26115.77726652  .00088414  00000+0  29371-2 0  9997
2 34383  74.0247  16.8766 0015082 161.4700 198.7056 15.30677766911494
COSMOS 2251 DEB         
1 34387U 93036QC  26115.03607698  .00000689  00000+0  20680-3 0  9991
2 34387  74.0403 324.0636 0037644  29.0632 122.8400 14.44172768901051
COSMOS 2251 DEB         
1 34388U 93036QD  26115.66240900  .00001645  00000+0  42989-3 0  9999
2 34388  74.0391 331.7538 0011867 350.7466  66.3167 14.50171012900961
COSMOS 2251 DEB         
1 34389U 93036QE  26115.78446192  .00000832  00000+0  26100-3 0  9998
2 34389  74.0204   1.1790 0028585  84.9245 339.7917 14.41896975899441
COSMOS 2251 DEB         
1 34396U 93036QM  26115.70764459  .00010947  00000+0  15102-2 0  9994
2 34396  74.0277 221.5016 0006253 244.4867 233.0654 14.78233757903239
COSMOS 2251 DEB         
1 34410U 93036RB  26115.03502910  .00083073  00000+0  20953-2 0  9999
2 34410  73.7304 333.6199 0023655 150.3177 209.9377 15.39186007918103
COSMOS 2251 DEB         
1 34412U 93036RD  26115.88014883  .00003979  00000+0  85629-3 0  9990
2 34412  73.9462  71.9943 0186061 138.1788 223.3763 14.48553516895929
COSMOS 2251 DEB         
1 34420U 93036RM  26115.62493128  .00000578  00000+0  97137-4 0  9994
2 34420  74.0335 204.9119 0106508 291.0548 193.6692 14.68604033917358
COSMOS 2251 DEB         
1 34425U 93036RS  26115.50671275  .00001536  00000+0  30396-3 0  9995
2 34425  74.0165 157.9281 0027877 249.3995 110.4182 14.62999517906968
COSMOS 2251 DEB         
1 34431U 93036RY  26115.83888281  .00001188  00000+0  46623-3 0  9998
2 34431  74.0741 292.3663 0067320 243.7957 115.6261 14.29223840890583
COSMOS 2251 DEB         
1 34432U 93036RZ  26115.40026565  .00000933  00000+0  53149-3 0  9999
2 34432  73.8280 226.7481 0181756 285.2300 138.4517 14.03298080875592
COSMOS 2251 DEB         
1 34433U 93036SA  26115.83591316  .00002100  00000+0  10095-2 0  9998
2 34433  74.0080 277.2429 0151022  25.0443 335.7925 14.13631494878441
COSMOS 2251 DEB         
1 34434U 93036SB  26115.12683914  .00003401  00000+0  19686-2 0  9997
2 34434  74.0590 142.9913 0283448 248.2535 169.2730 13.91037738858205
