[{"OBJECT_NAME":"COSMOS 2251 DEB","OBJECT_ID":"1993-036PY","EPOCH":"2026-04-25T18:39:15.827328","MEAN_MOTION":15.30677765,"ECCENTRICITY":0.0015082,"INCLINATION":74.0247,"RA_OF_ASC_NODE":16.8766,"ARG_OF_PERICENTER":161.47,"MEAN_ANOMALY":198.7056,"EPHEMERIS_TYPE":0,"CLASSIFICATION_TYPE":"U","NORAD_CAT_ID":34383,"ELEMENT_SET_NO":999,"REV_AT_EPOCH":91149,"BSTAR":0.0029371,"MEAN_MOTION_DOT":0.00088414,"MEAN_MOTION_DDOT":0},{"OBJECT_NAME":"COSMOS 2251 DEB","OBJECT_ID":"1993-036QC","EPOCH":"2026-04-25T00:51:57.051072","MEAN_MOTION":14.44172768,"ECCENTRICITY":0.00376442,"INCLINATION":74.0403,"RA_OF_ASC_NODE":324.0636,"ARG_OF_PERICENTER":29.0632,"MEAN_ANOMALY":122.84,"EPHEMERIS_TYPE":0,"CLASSIFICATION_TYPE":"U","NORAD_CAT_ID":34387,"ELEMENT_SET_NO":999,"REV_AT_EPOCH":90105,"BSTAR":0.00020679858,"MEAN_MOTION_DOT":6.89e-6,"MEAN_MOTION_DDOT":0},{"OBJECT_NAME":"COSMOS 2251 DEB","OBJECT_ID":"1993-036QD","EPOCH":"2026-04-25T15:53:52.136736","MEAN_MOTION":14.50171011,"ECCENTRICITY":0.0011867,"INCLINATION":74.0391,"RA_OF_ASC_NODE":331.7538,"ARG_OF_PERICENTER":350.7466,"MEAN_ANOMALY":66.3167,"EPHEMERIS_TYPE":0,"CLASSIFICATION_TYPE":"U","NORAD_CAT_ID":34388,"ELEMENT_SET_NO":999,"REV_AT_EPOCH":90096,"BSTAR":0.00042989,"MEAN_MOTION_DOT":1.645e-5,"MEAN_MOTION_DDOT":0},{"OBJECT_NAME":"COSMOS 2251 DEB","OBJECT_ID":"1993-036QE","EPOCH":"2026-04-25T18:49:37.509024","MEAN_MOTION":14.41896975,"ECCENTRICITY":0.0028585,"INCLINATION":74.0204,"RA_OF_ASC_NODE":1.179,"ARG_OF_PERICENTER":84.9245,"MEAN_ANOMALY":339.7917,"EPHEMERIS_TYPE":0,"CLASSIFICATION_TYPE":"U","NORAD_CAT_ID":34389,"ELEMENT_SET_NO":999,"REV_AT_EPOCH":89944,"BSTAR":0.000261,"MEAN_MOTION_DOT":8.32e-6,"MEAN_MOTION_DDOT":0},{"OBJECT_NAME":"COSMOS 2251 DEB","OBJECT_ID":"1993-036QM","EPOCH":"2026-04-25T16:59:00.491712","MEAN_MOTION":14.78233757,"ECCENTRICITY":0.0006253,"INCLINATION":74.0277,"RA_OF_ASC_NODE":221.5016,"ARG_OF_PERICENTER":244.4867,"MEAN_ANOMALY":233.0654,"EPHEMERIS_TYPE":0,"CLASSIFICATION_TYPE":"U","NORAD_CAT_ID":34396,"ELEMENT_SET_NO":999,"REV_AT_EPOCH":90323,"BSTAR":0.0015102,"MEAN_MOTION_DOT":0.00010947,"MEAN_MOTION_DDOT":0},{"OBJECT_NAME":"COSMOS 2251 DEB","OBJECT_ID":"1993-036RB","EPOCH":"2026-04-25T00:50:26.514240","MEAN_MOTION":15.39186007,"ECCENTRICITY":0.0023655,"INCLINATION":73.7304,"RA_OF_ASC_NODE":333.6199,"ARG_OF_PERICENTER":150.3177,"MEAN_ANOMALY":209.9377,"EPHEMERIS_TYPE":0,"CLASSIFICATION_TYPE":"U","NORAD_CAT_ID":34410,"ELEMENT_SET_NO":999,"REV_AT_EPOCH":91810,"BSTAR":0.0020952954,"MEAN_MOTION_DOT":0.00083073,"MEAN_MOTION_DDOT":0},{"OBJECT_NAME":"COSMOS 2251 DEB","OBJECT_ID":"1993-036RD","EPOCH":"2026-04-25T21:07:24.858048","MEAN_MOTION":14.48553516,"ECCENTRICITY":0.0186061,"INCLINATION":73.9462,"RA_OF_ASC_NODE":71.9943,"ARG_OF_PERICENTER":138.1788,"MEAN_ANOMALY":223.3763,"EPHEMERIS_TYPE":0,"CLASSIFICATION_TYPE":"U","NORAD_CAT_ID":34412,"ELEMENT_SET_NO":999,"REV_AT_EPOCH":89592,"BSTAR":0.00085629,"MEAN_MOTION_DOT":3.979e-5,"MEAN_MOTION_DDOT":0},{"OBJECT_NAME":"COSMOS 2251 DEB","OBJECT_ID":"1993-036RM","EPOCH":"2026-04-25T14:59:54.061728","MEAN_MOTION":14.68604033,"ECCENTRICITY":0.0106509,"INCLINATION":74.0335,"RA_OF_ASC_NODE":204.9119,"ARG_OF_PERICENTER":291.0548,"MEAN_ANOMALY":193.6692,"EPHEMERIS_TYPE":0,"CLASSIFICATION_TYPE":"U","NORAD_CAT_ID":34420,"ELEMENT_SET_NO":999,"REV_AT_EPOCH":91735,"BSTAR":9.7137e-5,"MEAN_MOTION_DOT":5.78e-6,"MEAN_MOTION_DDOT":0},{"OBJECT_NAME":"COSMOS 2251 DEB","OBJECT_ID":"1993-036RS","EPOCH":"2026-04-25T12:09:39.980736","MEAN_MOTION":14.62999517,"ECCENTRICITY":0.0027877,"INCLINATION":74.0165,"RA_OF_ASC_NODE":157.9281,"ARG_OF_PERICENTER":249.3995,"MEAN_ANOMALY":110.4182,"EPHEMERIS_TYPE":0,"CLASSIFICATION_TYPE":"U","NORAD_CAT_ID":34425,"ELEMENT_SET_NO":999,"REV_AT_EPOCH":90696,"BSTAR":0.00030396,"MEAN_MOTION_DOT":1.536e-5,"MEAN_MOTION_DDOT":0},{"OBJECT_NAME":"COSMOS 2251 DEB","OBJECT_ID":"1993-036RY","EPOCH":"2026-04-25T20:07:59.473920","MEAN_MOTION":14.2922384,"ECCENTRICITY":0.006732,"INCLINATION":74.0741,"RA_OF_ASC_NODE":292.3663,"ARG_OF_PERICENTER":243.7957,"MEAN_ANOMALY":115.6261,"EPHEMERIS_TYPE":0,"CLASSIFICATION_TYPE":"U","NORAD_CAT_ID":34431,"ELEMENT_SET_NO":999,"REV_AT_EPOCH":89058,"BSTAR":0.00046623,"MEAN_MOTION_DOT":1.188e-5,"MEAN_MOTION_DDOT":0},{"OBJECT_NAME":"COSMOS 2251 DEB","OBJECT_ID":"1993-036RZ","EPOCH":"2026-04-25T09:36:22.952160","MEAN_MOTION":14.0329808,"ECCENTRICITY":0.0181756,"INCLINATION":73.828,"RA_OF_ASC_NODE":226.7481,"ARG_OF_PERICENTER":285.23,"MEAN_ANOMALY":138.4517,"EPHEMERIS_TYPE":0,"CLASSIFICATION_TYPE":"U","NORAD_CAT_ID":34432,"ELEMENT_SET_NO":999,"REV_AT_EPOCH":87559,"BSTAR":0.00053149,"MEAN_MOTION_DOT":9.33e-6,"MEAN_MOTION_DDOT":0},{"OBJECT_NAME":"COSMOS 2251 DEB","OBJECT_ID":"1993-036SA","EPOCH":"2026-04-25T20:03:42.897024","MEAN_MOTION":14.13631493,"ECCENTRICITY":0.0151023,"INCLINATION":74.008,"RA_OF_ASC_NODE":277.2429,"ARG_OF_PERICENTER":25.0443,"MEAN_ANOMALY":335.7925,"EPHEMERIS_TYPE":0,"CLASSIFICATION_TYPE":"U","NORAD_CAT_ID":34433,"ELEMENT_SET_NO":999,"REV_AT_EPOCH":87844,"BSTAR":0.0010095,"MEAN_MOTION_DOT":2.1e-5,"MEAN_MOTION_DDOT":0},{"OBJECT_NAME":"COSMOS 2251 DEB","OBJECT_ID":"1993-036SB","EPOCH":"2026-04-25T03:02:38.901696","MEAN_MOTION":13.91037738,"ECCENTRICITY":0.02834489,"INCLINATION":74.059,"RA_OF_ASC_NODE":142.9913,"ARG_OF_PERICENTER":248.2535,"MEAN_ANOMALY":169.273,"EPHEMERIS_TYPE":0,"CLASSIFICATION_TYPE":"U","NORAD_CAT_ID":34434,"ELEMENT_SET_NO":999,"REV_AT_EPOCH":85820,"BSTAR":0.001968615,"MEAN_MOTION_DOT":3.401e-5,"MEAN_MOTION_DDOT":0}]
